OBJECT_NAME,OBJECT_ID,EPOCH,MEAN_MOTION,ECCENTRICITY,INCLINATION,RA_OF_ASC_NODE,ARG_OF_PERICENTER,MEAN_ANOMALY,EPHEMERIS_TYPE,CLASSIFICATION_TYPE,NORAD_CAT_ID,ELEMENT_SET_NO,REV_AT_EPOCH,BSTAR,MEAN_MOTION_DOT,MEAN_MOTION_DDOT
TELSTAR 12V,2015-068A,2026-07-17T14:54:37.512000,1.00271117,.00021774,0.0170,56.1422,55.5694,32.3729,0,U,41036,999,3893,0,-.129E-5,0
ELEKTRO-L 2,2015-074A,2026-07-17T09:46:59.367648,1.00272043,.00010116,6.7681,70.1492,216.2851,141.0386,0,U,41105,999,3880,0,-.13E-5,0
COSMOS 2513,2015-075A,2026-07-17T15:21:57.054816,1.00270610,.00022237,0.0615,103.7129,346.6722,155.7869,0,U,41121,999,3885,0,-.147E-5,0
EXPRESS-AMU1,2015-082A,2026-07-17T11:44:05.629056,1.00276162,.00026673,0.0167,52.3945,78.3589,16.7354,0,U,41191,999,3857,0,0,0
GAOFEN-4,2015-083A,2026-07-17T18:43:43.891968,1.00271727,.0004182,0.4346,83.8445,123.4605,114.9209,0,U,41194,999,3883,0,-.344E-5,0
BELINTERSAT-1,2016-001A,2026-07-17T15:13:42.845088,1.00274094,.00017237,0.0464,245.1956,188.9112,141.2829,0,U,41238,999,3854,0,.97E-6,0
IRNSS-1E,2016-003A,2026-07-13T01:01:03.714240,1.00278688,.00189772,33.2887,59.3748,176.6620,181.8769,0,U,41241,999,3833,0,-.321E-5,0
EUTELSAT 9B,2016-005A,2026-07-17T15:01:36.842304,1.00271704,.00011223,0.0427,65.7477,42.1306,61.9377,0,U,41310,999,3842,0,.52E-6,0
SES-9,2016-013A,2026-07-17T15:29:59.083008,1.00271898,.00021704,0.0147,342.4945,123.6918,170.0692,0,U,41380,999,3774,0,-.354E-5,0
EUTELSAT 65 WEST A,2016-014A,2026-07-17T12:57:51.662592,1.00271394,.00021298,0.0935,296.4617,172.6100,315.5458,0,U,41382,999,3783,0,-.286E-5,0
IRNSS-1F,2016-015A,2026-07-17T06:35:09.443904,1.00267353,.00177282,5.4222,96.0879,179.9294,150.3367,0,U,41384,999,3796,0,.145E-5,0
BEIDOU-2 IGSO-6,2016-021A,2026-06-26T02:38:38.671584,1.00258926,.0057558,60.2385,37.9495,231.0163,137.2672,0,U,41434,999,3757,0,-.145E-5,0
IRNSS-1G,2016-027A,2026-07-17T14:29:01.466016,1.00269634,.00059498,5.2686,96.7710,12.1833,173.3888,0,U,41469,999,3748,0,-.346E-5,0
JCSAT-2B,2016-028A,2026-07-17T13:07:14.548224,1.00270178,.00008964,0.0174,53.1729,57.8115,175.1796,0,U,41471,999,3743,0,-.175E-5,0
THAICOM 8,2016-031A,2026-07-17T15:21:27.103392,1.00271820,.00029923,0.0567,32.0731,42.0713,170.1557,0,U,41552,999,3702,0,-.13E-5,0
INTELSAT 31 (IS-31),2016-035A,2026-07-17T08:51:38.465280,1.00270166,.00010571,0.0060,13.9840,283.2475,35.8039,0,U,41581,999,3698,0,-.16E-5,0
BEIDOU-2 G7,2016-037A,2026-07-17T14:22:57.225216,1.00272216,.00059022,1.7937,69.5208,0.1301,192.0559,0,U,41586,999,719,0,-.363E-5,0
ABS-2A (MONGOLSAT-1),2016-038A,2026-07-17T08:29:37.182912,1.00270320,.00014304,0.0106,51.3870,9.0146,76.8619,0,U,41588,999,3701,0,-.93E-6,0
EUTELSAT 117 WEST B,2016-038B,2026-07-17T14:25:40.287936,1.00273199,.00002529,0.0089,197.1371,310.6381,247.0771,0,U,41589,999,3696,0,-.21E-6,0
BRISAT,2016-039A,2026-07-17T13:07:38.548416,1.00269333,.0001993,0.0150,27.9961,86.8840,167.8934,0,U,41591,999,3691,0,0,0
ECHOSTAR 18,2016-039B,2026-07-17T11:16:15.796992,1.00270775,.00015283,0.0174,54.5467,69.7124,278.7173,0,U,41592,999,3692,0,-.292E-5,0
MUOS-5,2016-041A,2026-07-17T14:28:47.489088,1.00272851,.01996722,2.1393,302.2723,260.5733,204.6442,0,U,41622,999,3739,0,-.153E-5,0
TIANTONG-1 1,2016-048A,2026-07-17T17:21:11.382624,1.00274523,.0004845,3.9071,43.6504,55.3510,198.2054,0,U,41725,999,3657,0,-.328E-5,0
JCSAT-16,2016-050A,2026-07-17T14:07:28.070976,1.00270409,.0000971,0.0178,53.2158,73.0051,164.9895,0,U,41729,999,3637,0,-.261E-5,0
USA 270,2016-052A,2026-07-14T10:51:22.391136,1.00267800,.0009408,4.2649,76.8388,101.7031,42.7683,0,U,41744,999,2840,0,-.362E-5,0
USA 271,2016-052B,2026-07-14T02:57:21.919968,1.00268559,.0011085,4.2370,76.9135,165.9764,191.3847,0,U,41745,999,2818,0,-.3E-5,0
INTELSAT 36 (IS-36),2016-053A,2026-07-17T10:10:34.605696,1.00271735,.00022938,0.0105,39.2752,305.0932,171.9939,0,U,41747,999,3626,0,-.34E-6,0
INSAT-3DR,2016-054A,2026-07-17T15:20:04.733952,1.00271000,.001048,0.0761,88.8944,180.8812,329.6862,0,U,41752,999,3612,0,-.86E-6,0
GSAT-18,2016-060A,2026-07-17T15:20:04.733952,1.00271595,.00053064,0.0413,91.1327,348.5095,159.7929,0,U,41793,999,3583,0,-.86E-6,0
SKY MUSTER 2 (NBN1B),2016-060B,2026-07-17T14:07:27.994944,1.00269224,.00017307,0.0192,60.7580,61.5662,169.7441,0,U,41794,999,3582,0,0,0
HIMAWARI-9,2016-064A,2026-07-17T13:31:38.542656,1.00266850,.00023966,0.0066,334.9880,202.8792,101.1586,0,U,41836,999,3551,0,0,0
SHIJIAN-17 (SJ-17),2016-065A,2026-07-16T19:22:02.989920,0.99866496,.0001933,5.8263,72.2450,43.9433,300.8940,0,U,41838,999,3549,0,.45E-6,0
