TELSTAR 12V             
1 41036U 15068A   26198.62126750 -.00000129  00000+0  00000+0 0  9990
2 41036   0.0170  56.1422 0002177  55.5694  32.3729  1.00271117 38934
ELEKTRO-L 2             
1 41105U 15074A   26198.40763157 -.00000130  00000+0  00000+0 0  9990
2 41105   6.7681  70.1492 0001011 216.2851 141.0386  1.00272043 38803
COSMOS 2513             
1 41121U 15075A   26198.64024369 -.00000147  00000+0  00000+0 0  9998
2 41121   0.0615 103.7129 0002223 346.6722 155.7869  1.00270610 38857
EXPRESS-AMU1            
1 41191U 15082A   26198.48895404  .00000000  00000+0  00000+0 0  9998
2 41191   0.0167  52.3945 0002667  78.3589  16.7354  1.00276162 38575
GAOFEN-4                
1 41194U 15083A   26198.78036912 -.00000344  00000+0  00000+0 0  9998
2 41194   0.4346  83.8445 0004182 123.4605 114.9209  1.00271727 38831
BELINTERSAT-1           
1 41238U 16001A   26198.63452367  .00000097  00000+0  00000+0 0  9992
2 41238   0.0464 245.1956 0001723 188.9112 141.2829  1.00274094 38543
IRNSS-1E                
1 41241U 16003A   26194.04240410 -.00000321  00000+0  00000+0 0  9994
2 41241  33.2887  59.3748 0018977 176.6620 181.8769  1.00278688 38338
EUTELSAT 9B             
1 41310U 16005A   26198.62612086  .00000052  00000+0  00000+0 0  9993
2 41310   0.0427  65.7477 0001122  42.1306  61.9377  1.00271704 38424
SES-9                   
1 41380U 16013A   26198.64582272 -.00000354  00000+0  00000+0 0  9990
2 41380   0.0147 342.4945 0002170 123.6918 170.0692  1.00271898 37743
EUTELSAT 65 WEST A      
1 41382U 16014A   26198.54018128 -.00000286  00000+0  00000+0 0  9990
2 41382   0.0935 296.4617 0002129 172.6100 315.5458  1.00271394 37832
IRNSS-1F                
1 41384U 16015A   26198.27441486  .00000145  00000+0  00000+0 0  9993
2 41384   5.4222  96.0879 0017728 179.9294 150.3367  1.00267353 37969
BEIDOU-2 IGSO-6         
1 41434U 16021A   26177.11016981 -.00000145  00000+0  00000+0 0  9995
2 41434  60.2385  37.9495 0057558 231.0163 137.2672  1.00258926 37578
IRNSS-1G                
1 41469U 16027A   26198.60348919 -.00000346  00000+0  00000+0 0  9998
2 41469   5.2686  96.7710 0005949  12.1833 173.3888  1.00269634 37489
JCSAT-2B                
1 41471U 16028A   26198.54669616 -.00000175  00000+0  00000+0 0  9995
2 41471   0.0174  53.1729 0000896  57.8115 175.1796  1.00270178 37437
THAICOM 8               
1 41552U 16031A   26198.63989703 -.00000130  00000+0  00000+0 0  9992
2 41552   0.0567  32.0731 0002992  42.0713 170.1557  1.00271820 37021
INTELSAT 31 (IS-31)     
1 41581U 16035A   26198.36919520 -.00000160  00000+0  00000+0 0  9991
2 41581   0.0060  13.9840 0001057 283.2475  35.8039  1.00270166 36983
BEIDOU-2 G7             
1 41586U 16037A   26198.59927344 -.00000363  00000+0  00000+0 0  9991
2 41586   1.7937  69.5208 0005902   0.1301 192.0559  1.00272216  7193
ABS-2A (MONGOLSAT-1)    
1 41588U 16038A   26198.35390258 -.00000093  00000+0  00000+0 0  9996
2 41588   0.0106  51.3870 0001430   9.0146  76.8619  1.00270320 37010
EUTELSAT 117 WEST B     
1 41589U 16038B   26198.60116074 -.00000021  00000+0  00000+0 0  9998
2 41589   0.0089 197.1371 0000252 310.6381 247.0771  1.00273199 36960
BRISAT                  
1 41591U 16039A   26198.54697394  .00000000  00000+0  00000+0 0  9990
2 41591   0.0150  27.9961 0001993  86.8840 167.8934  1.00269333 36912
ECHOSTAR 18             
1 41592U 16039B   26198.46962728 -.00000292  00000+0  00000+0 0  9992
2 41592   0.0174  54.5467 0001528  69.7124 278.7173  1.00270775 36925
MUOS-5                  
1 41622U 16041A   26198.60332742 -.00000153  00000+0  00000+0 0  9998
2 41622   2.1393 302.2723 0199672 260.5733 204.6442  1.00272851 37394
TIANTONG-1 1            
1 41725U 16048A   26198.72304841 -.00000328  00000+0  00000+0 0  9995
2 41725   3.9071  43.6504 0004845  55.3510 198.2054  1.00274523 36577
JCSAT-16                
1 41729U 16050A   26198.58851934 -.00000261  00000+0  00000+0 0  9992
2 41729   0.0178  53.2158 0000971  73.0051 164.9895  1.00270409 36372
USA 270                 
1 41744U 16052A   26195.45234249 -.00000362  00000+0  00000+0 0  9990
2 41744   4.2649  76.8388 0009408 101.7031  42.7683  1.00267800 28409
USA 271                 
1 41745U 16052B   26195.12317037 -.00000300  00000+0  00000+0 0  9994
2 41745   4.2370  76.9135 0011085 165.9764 191.3847  1.00268559 28181
INTELSAT 36 (IS-36)     
1 41747U 16053A   26198.42401164 -.00000034  00000+0  00000+0 0  9992
2 41747   0.0105  39.2752 0002293 305.0932 171.9939  1.00271735 36269
INSAT-3DR               
1 41752U 16054A   26198.63894368 -.00000086  00000+0  00000+0 0  9991
2 41752   0.0761  88.8944 0010480 180.8812 329.6862  1.00271000 36126
GSAT-18                 
1 41793U 16060A   26198.63894368 -.00000086  00000+0  00000+0 0  9993
2 41793   0.0413  91.1327 0005306 348.5095 159.7929  1.00271595 35836
SKY MUSTER 2 (NBN1B)    
1 41794U 16060B   26198.58851846  .00000000  00000+0  00000+0 0  9997
2 41794   0.0192  60.7580 0001730  61.5662 169.7441  1.00269224 35828
HIMAWARI-9              
1 41836U 16064A   26198.56364054  .00000000  00000+0  00000+0 0  9996
2 41836   0.0066 334.9880 0002396 202.8792 101.1586  1.00266850 35515
SHIJIAN-17 (SJ-17)      
1 41838U 16065A   26197.80697905  .00000045  00000+0  00000+0 0  9998
2 41838   5.8263  72.2450 0001933  43.9433 300.8940  0.99866496 35494
